STARLINK-37963          
1 69709U 26147F   26198.57084860  .00195259  00000+0  99377-3 0  9993
2 69709  97.2818 235.1044 0001301  72.3599 287.7811 15.80897642  4230
STARLINK-37969          
1 69710U 26147G   26198.57009528  .00227299  00000+0  11512-2 0  9997
2 69710  97.2824 235.1055 0000921  68.1295 292.0071 15.80921867  4238
STARLINK-37956          
1 69711U 26147H   26198.56934572  .00192542  00000+0  98038-3 0  9994
2 69711  97.2827 235.1076 0001295  60.3055 299.8342 15.80895016  4230
STARLINK-38043          
1 69712U 26147J   26198.56858764  .00183233  00000+0  93386-3 0  9991
2 69712  97.2825 235.1081 0000226 261.4032  98.7211 15.80898257  4238
STARLINK-38020          
1 69713U 26147K   26198.56783676  .00165154  00000+0  84399-3 0  9997
2 69713  97.2821 235.1103 0000544 195.1337 164.9915 15.80887328  4238
STARLINK-38059          
1 69714U 26147L   26198.56708535  .00188806  00000+0  96181-3 0  9990
2 69714  97.2831 235.1117 0000317 264.6269  95.4963 15.80894200  4237
STARLINK-38061          
1 69715U 26147M   26198.56633674  .00175168  00000+0  89364-3 0  9994
2 69715  97.2821 235.1118 0000684  52.7499 307.3831 15.80898339  4232
STARLINK-38060          
1 69716U 26147N   26198.56558787  .00181350  00000+0  92466-3 0  9993
2 69716  97.2819 235.1125 0001040  79.1308 281.0077 15.80894454  4231
STARLINK-38040          
1 69717U 26147P   26198.56483615  .00171859  00000+0  87741-3 0  9994
2 69717  97.2821 235.1138 0001224  79.6660 280.4746 15.80890613  4238
STARLINK-37989          
1 69718U 26147Q   26198.56408490  .00209564  00000+0  10669-2 0  9992
2 69718  97.2807 235.1139 0001535  81.9005 278.2437 15.80852738  4236
STARLINK-38039          
1 69719U 26147R   26198.56333029  .00202402  00000+0  10285-2 0  9996
2 69719  97.2817 235.1145 0000718  52.5970 307.5364 15.80912897  4230
STARLINK-38003          
1 69720U 26147S   26198.56258220  .00197341  00000+0  10040-2 0  9991
2 69720  97.2827 235.1156 0001174  92.3213 267.8189 15.80899551  4238
STARLINK-38014          
1 69721U 26147T   26198.56182810  .00194507  00000+0  99049-3 0  9991
2 69721  97.2822 235.1166 0001029  63.1266 297.0108 15.80887599  4233
STARLINK-37915          
1 69722U 26147U   26198.87758380  .00220427  00000+0  11196-2 0  9994
2 69722  97.2815 235.4519 0001386  94.5541 265.5886 15.80877000  4285
STARLINK-38007          
1 69723U 26147V   26198.37358382  .00761876  00000+0  36476-2 0  9994
2 69723  97.2842 234.9147 0002152 343.2087  16.9110 15.80781191  4203
STARLINK-38008          
1 69724U 26147W   26198.36967176  .00196064  00000+0  99966-3 0  9996
2 69724  97.2819 234.9186 0001196  92.5327 267.6078 15.80856306  4208
STARLINK-38021          
1 69725U 26147X   26198.55882471  .00205032  00000+0  10421-2 0  9996
2 69725  97.2816 235.1212 0001159  72.4509 287.6886 15.80901884  4231
STARLINK-38015          
1 69726U 26147Y   26198.05172056  .00270378  00000+0  13765-2 0  9992
2 69726  97.2828 234.5863 0003109 175.2803 184.8496 15.80693791  4157
STARLINK-38010          
1 69727U 26147Z   26198.52579015  .00155021  00000+0  10192-2 0  9999
2 69727  97.2838 235.0124 0000594  89.8639 270.2694 15.75240203  4225
SXM-11                  
1 69728U 26148A   26198.88552297  .00000002  00000+0  00000+0 0  9995
2 69728   0.1045 265.1033 0001967 182.6290  46.2315  1.00270079   350
HAIYANG-2E              
1 69737U 26149A   26198.84297304 -.00000064  00000+0 -19198-4 0  9990
2 69737  99.3454 205.7315 0001585  89.9573 270.1760 13.79314680  2187
CZ-4B R/B               
1 69738U 26149B   26198.99007074  .00000039  00000+0  30500-4 0  9990
2 69738  99.3218 207.2084 0198009 322.0215  36.7139 14.30068265  2536
STARLINK-38033          
1 69739U 26150A   26198.49001286  .00225059  00000+0  11411-2 0  9996
2 69739  97.2846  36.9841 0001271 101.6458 258.4953 15.80903739  3687
STARLINK-38076          
1 69740U 26150B   26198.51689711  .00166410  00000+0  10925-2 0  9990
2 69740  97.2837  36.9457 0001137  98.9376 261.2018 15.75242485  3682
STARLINK-38074          
1 69741U 26150C   26198.86747279  .00153741  00000+0  82177-3 0  9995
2 69741  97.2855  37.3887 0004645 347.6885  12.4269 15.79917172  3748
STARLINK-38041          
1 69742U 26150D   26198.91668981 -.00027545  00000+0 -18446-3 0  9996
2 69742  97.2850  37.4213 0001215 103.3936 128.3068 15.75182941  3739
STARLINK-38087          
1 69743U 26150E   26198.91668981 -.00006497  00000+0 -42744-4 0  9999
2 69743  97.2848  37.4380 0000970 107.7987 165.8896 15.75181016  3730
STARLINK-38078          
1 69744U 26150F   26198.29527429  .00288448  00000+0  14534-2 0  9992
2 69744  97.2848  36.7891 0002636  72.7886 287.3670 15.80874562  3652
STARLINK-38047          
1 69745U 26150G   26198.91668981 -.00039726  00000+0 -26667-3 0  9997
2 69745  97.2851  37.4250 0000584 119.2684 122.4283 15.75194158  3735
STARLINK-38046          
1 69746U 26150H   26198.86225308  .00278335  00000+0  13991-2 0  9998
2 69746  97.2852  37.3962 0000789 181.2578 178.8689 15.80954026  3744
STARLINK-38067          
1 69747U 26150J   26198.82288878  .00115789  00000+0  76659-3 0  9990
2 69747  97.2835  37.2956 0001745  92.1933 267.9532 15.75192520  3739
STARLINK-37988          
1 69748U 26150K   26198.82112473  .00204278  00000+0  13301-2 0  9994
2 69748  97.2835  37.2979 0001252 112.9896 247.1501 15.75326244  3735
STARLINK-37987          
1 69749U 26150L   26198.81688957  .00129681  00000+0  85621-3 0  9998
2 69749  97.2843  37.3043 0002225  97.9668 262.1850 15.75214396  3736
STARLINK-38037          
1 69750U 26150M   26198.79438366  .00267818  00000+0  13459-2 0  9998
2 69750  97.2850  37.3356 0001414 103.1301 257.0125 15.80987860  3733
STARLINK-38049          
1 69751U 26150N   26198.54016062  .00293836  00000+0  14753-2 0  9994
2 69751  97.2845  37.0688 0001346 104.0296 256.1122 15.80940262  3697
STARLINK-38029          
1 69752U 26150P   26198.91668981 -.00023664  00000+0 -15825-3 0  9993
2 69752  97.2849  37.4505 0001093 107.5424 192.1517 15.75186118  3732
STARLINK-37965          
1 69753U 26150Q   26198.48934558  .00164945  00000+0  10796-2 0  9999
2 69753  97.2842  36.9844 0001625 120.0515 240.0911 15.75316047  3689
STARLINK-38048          
1 69754U 26150R   26198.53403882  .00147462  00000+0  75605-3 0  9993
2 69754  97.2827  37.0770 0000872 105.1327 255.0038 15.80862549  3697
STARLINK-38006          
1 69755U 26150S   26198.91668981 -.00038973  00000+0 -26157-3 0  9995
2 69755  97.2846  37.4563 0000856 123.4954 190.1958 15.75194294  3738
STARLINK-38036          
1 69756U 26150T   26198.91668981 -.00029690  00000+0 -19888-3 0  9995
2 69756  97.2855  37.4729 0000937  92.5163 259.1696 15.75190366  3732
STARLINK-38058          
1 69757U 26150U   26198.91668981 -.01857399  00000+0 -11605-1 0  9999
2 69757  97.2843  37.4933 0001344  74.1006 326.5022 15.79767371  3734
STARLINK-38066          
1 69758U 26150V   26198.52954147  .00281833  00000+0  14431-2 0  9991
2 69758  97.2819  37.0863 0002245  92.5096 267.6429 15.80539037  3699
STARLINK-38035          
1 69759U 26150W   26197.51659780  .00328828  00000+0  16439-2 0  9991
2 69759  97.2826  36.0135 0001208 127.8766 232.2612 15.80943955  3536
STARLINK-38056          
1 69760U 26150X   26198.52595956  .00171456  00000+0  87587-3 0  9995
2 69760  97.2834  37.0896 0001248 110.0556 250.0847 15.80878793  3699
STARLINK-38069          
1 69761U 26150Y   26198.83923368 -.00002747  00000+0 -14199-4 0  9990
2 69761  97.2838  37.4292 0004010   0.9354 359.1921 15.79871740  3744
STARLINK-38019          
1 69762U 26150Z   26198.92417933  .00085666  00000+0  56895-3 0  9994
2 69762  97.2844  37.4652 0000465  75.8835 284.2482 15.75211631  3751
KUIPER-00258            
1 69763U 26151A   26198.93619761  .00003326  00000+0  10823-3 0  9994
2 69763  51.8673 167.3485 0011517 176.1999 183.9076 15.34767856  2439
KUIPER-00526            
1 69764U 26151B   26198.46227668  .00012172  00000+0  33725-3 0  9999
2 69764  51.8774 169.4309 0005842 149.0343 211.0989 15.37352408  2360
KUIPER-00558            
1 69765U 26151C   26198.91668981  .00041723  00000+0  12722-2 0  9994
2 69765  51.8777 167.3212 0006942 171.7253 141.2440 15.33518626  3031
KUIPER-00569            
1 69766U 26151D   26198.91555443  .00019595  00000+0  53327-3 0  9992
2 69766  51.8783 167.2196 0005300 142.1548 217.9812 15.37510491  2438
KUIPER-00589            
1 69767U 26151E   26198.46141912  .00012237  00000+0  33874-3 0  9996
2 69767  51.8764 169.4246 0005366 150.2740 209.8552 15.37378719  2362
KUIPER-00598            
1 69768U 26151F   26198.91668981  .00032892  00000+0  97802-3 0  9997
2 69768  51.8640 167.4390 0008803 173.1576  78.0541 15.34413763  2971
KUIPER-00604            
1 69769U 26151G   26198.90797058  .00014306  00000+0  38288-3 0  9998
2 69769  51.8803 167.1691 0002741 111.4868 248.6412 15.38282933  2438
KUIPER-00609            
1 69770U 26151H   26198.64396768  .00014438  00000+0  38144-3 0  9991
2 69770  51.8808 168.3993 0001418  55.6122 304.4999 15.38674387  2399
KUIPER-00611            
1 69771U 26151J   26198.90580957  .00014642  00000+0  38890-3 0  9991
2 69771  51.8804 167.1516 0001749 100.2434 259.8751 15.38498678  2435
KUIPER-00612            
1 69772U 26151K   26198.91098585  .00014197  00000+0  38370-3 0  9992
2 69772  51.8795 167.1902 0003785 122.3507 237.7847 15.37985007  2439
KUIPER-00614            
1 69773U 26151L   26198.90884825  .00013411  00000+0  36069-3 0  9993
2 69773  51.8806 167.1732 0002705 127.0358 233.0877 15.38191068  2430
KUIPER-00615            
1 69774U 26151M   26198.91823332  .00012794  00000+0  35486-3 0  9996
2 69774  51.8777 167.2380 0005915 153.7507 206.3781 15.37267291  2434
KUIPER-00616            
1 69775U 26151N   26198.90707221  .00000911  00000+0  33968-4 0  9996
2 69775  51.8787 167.1652 0003120 128.2453 231.8815 15.38408173  2438
KUIPER-00617            
1 69776U 26151P   26198.91234999  .00014753  00000+0  40031-3 0  9992
2 69776  51.8798 167.1986 0003885 140.6407 219.4863 15.37827270  2433
